{
  "58373": {
    "noradId": "58373",
    "tle": [
      "1 58373C 23177Y   25278.75673611  .00009706  00000+0  71591-3 0  2783",
      "2 58373  43.0018 113.7125 0001122 269.5894 190.1130 15.02540294    11"
    ]
  },
  "58374": {
    "noradId": "58374",
    "tle": [
      "1 58374C 23178A   25278.75951389  .00000512  00000+0  17259-4 0  2784",
      "2 58374  53.1603   0.5460 0001310  83.0266 261.6424 15.30200445    12"
    ]
  },
  "58375": {
    "noradId": "58375",
    "tle": [
      "1 58375C 23178B   25278.75743056  .00006863  00000+0  23121-3 0  2784",
      "2 58375  53.1602   0.6741 0001542  98.8679 176.1354 15.30197905    12"
    ]
  },
  "58376": {
    "noradId": "58376",
    "tle": [
      "1 58376C 23178C   25278.76159722  .00017250  00000+0  58121-3 0  2787",
      "2 58376  53.1598   0.6896 0001241  96.1464 184.3894 15.30184502    16"
    ]
  },
  "58377": {
    "noradId": "58377",
    "tle": [
      "1 58377C 23178D   25278.75812500  .00020104  00000+0  67723-3 0  2787",
      "2 58377  53.1604   0.5666 0001219  81.4669 243.9017 15.30187856    12"
    ]
  },
  "58378": {
    "noradId": "58378",
    "tle": [
      "1 58378C 23178E   25278.76229167  .00017391  00000+0  58588-3 0  2783",
      "2 58378  53.1604 348.1340 0001402  97.2848  85.3900 15.30187805    14"
    ]
  },
  "58379": {
    "noradId": "58379",
    "tle": [
      "1 58379C 23178F   25278.75743056  .00039380  00000+0  13274-2 0  2785",
      "2 58379  53.1596   0.7408 0001452  81.2121 158.9540 15.30149610    12"
    ]
  },
  "58380": {
    "noradId": "58380",
    "tle": [
      "1 58380C 23178G   25278.76368056  .00006911  00000+0  23293-3 0  2788",
      "2 58380  53.1569 270.9549 0001227  91.3828   7.3592 15.30182856    10"
    ]
  },
  "58381": {
    "noradId": "58381",
    "tle": [
      "1 58381C 23178H   25278.75881944  .00039570  00000+0  13335-2 0  2786",
      "2 58381  53.1593   0.7930 0001082  81.2618 114.2363 15.30155642    12"
    ]
  },
  "58382": {
    "noradId": "58382",
    "tle": [
      "1 58382C 23178J   25278.75743056  .00020776  00000+0  69996-3 0  2781",
      "2 58382  53.1593   0.9920 0001291 107.4756   4.6787 15.30182436    13"
    ]
  },
  "58383": {
    "noradId": "58383",
    "tle": [
      "1 58383C 23178K   25278.76298611  .00027103  00000+0  91306-3 0  2786",
      "2 58383  53.1593   0.7846 0001240  63.0083 172.8266 15.30178685    14"
    ]
  },
  "58384": {
    "noradId": "58384",
    "tle": [
      "1 58384C 23178L   25278.76090278  .00013862  00000+0  46700-3 0  2781",
      "2 58384  53.1606   0.5942 0001165  69.7728 241.8470 15.30190650    10"
    ]
  },
  "58385": {
    "noradId": "58385",
    "tle": [
      "1 58385C 23178M   25278.76368056  .00020748  00000+0  69895-3 0  2785",
      "2 58385  53.1601   0.4907 0001181  71.3363 313.7312 15.30186188    13"
    ]
  },
  "58386": {
    "noradId": "58386",
    "tle": [
      "1 58386C 23178N   25278.75118056  .00029005  00000+0  97708-3 0  2787",
      "2 58386  53.1600   1.0246 0001364  75.2805 257.8901 15.30178573    14"
    ]
  },
  "58387": {
    "noradId": "58387",
    "tle": [
      "1 58387C 23178P   25278.76090278  .00021247  00000+0  71573-3 0  2786",
      "2 58387  53.1599   0.9516 0001314  79.1531 359.8877 15.30186282    15"
    ]
  },
  "58388": {
    "noradId": "58388",
    "tle": [
      "1 58388C 23178Q   25278.76159722  .00015468  00000+0  52121-3 0  2783",
      "2 58388  53.1593   0.9277 0001298 101.3647  57.0288 15.30184152    18"
    ]
  },
  "58389": {
    "noradId": "58389",
    "tle": [
      "1 58389C 23178R   25278.75951389 -.00017331  00000+0 -58403-3 0  2784",
      "2 58389  53.1593   0.9588 0001266  87.6486  47.6463 15.30213541    11"
    ]
  },
  "58390": {
    "noradId": "58390",
    "tle": [
      "1 58390C 23178S   25278.75812500  .00023197  00000+0  78145-3 0  2787",
      "2 58390  53.1593   0.8752 0001294  76.2903  97.8501 15.30183170    18"
    ]
  },
  "58391": {
    "noradId": "58391",
    "tle": [
      "1 58391C 23178T   25278.76090278  .00018130  00000+0  61079-3 0  2788",
      "2 58391  53.1597   0.9079 0001075 108.9761   4.9449 15.30187275    18"
    ]
  },
  "58393": {
    "noradId": "58393",
    "tle": [
      "1 58393C 23178V   25278.76229167  .00016350  00000+0  55076-3 0  2783",
      "2 58393  53.1595   0.7496 0001294  82.2102 167.2359 15.30191827    16"
    ]
  },
  "58394": {
    "noradId": "58394",
    "tle": [
      "1 58394C 23178W   25278.76368056  .00016847  00000+0  56757-3 0  2783",
      "2 58394  53.1597   0.9627 0001399  80.5559 338.9435 15.30188429    16"
    ]
  },
  "58395": {
    "noradId": "58395",
    "tle": [
      "1 58395C 23178X   25278.75743056  .00007503  00000+0  25275-3 0  2780",
      "2 58395  53.1591   0.9865 0001362 114.5859  38.2051 15.30197523    15"
    ]
  },
  "58402": {
    "noradId": "58402",
    "tle": [
      "1 58402C 23180A   25278.76298611  .00016355  00000+0  12069-2 0  2786",
      "2 58402  43.0021 177.5591 0001373 266.3438  91.0957 15.02516841    17"
    ]
  },
  "58403": {
    "noradId": "58403",
    "tle": [
      "1 58403C 23180B   25278.75743056  .00016393  00000+0  12095-2 0  2785",
      "2 58403  43.0022 178.3232 0001175 265.8546 114.9417 15.02520775    11"
    ]
  },
  "58404": {
    "noradId": "58404",
    "tle": [
      "1 58404C 23180C   25278.75673611  .00015680  00000+0  11569-2 0  2788",
      "2 58404  43.0022 178.2829 0001791 268.2690 126.8095 15.02521904    13"
    ]
  },
  "58405": {
    "noradId": "58405",
    "tle": [
      "1 58405C 23180D   25278.75743056 -.00028235  00000+0 -20828-2 0  2780",
      "2 58405  43.0022 178.2350 0001370 263.9205 152.9182 15.02573429    16"
    ]
  },
  "58406": {
    "noradId": "58406",
    "tle": [
      "1 58406C 23180E   25278.76784722 -.00019068  00000+0 -14069-2 0  2781",
      "2 58406  43.0021 178.1361 0001354 267.2821 224.0296 15.02556140    18"
    ]
  },
  "58407": {
    "noradId": "58407",
    "tle": [
      "1 58407C 23180F   25278.76090278  .00018185  00000+0  13422-2 0  2787",
      "2 58407  43.0021 177.5254 0001283 266.4828  97.7396 15.02506540    17"
    ]
  },
  "58408": {
    "noradId": "58408",
    "tle": [
      "1 58408C 23180G   25278.75812500  .00016785  00000+0  12386-2 0  2789",
      "2 58408  43.0020 178.3229 0001347 266.5144  46.0569 15.02515367    17"
    ]
  },
  "58409": {
    "noradId": "58409",
    "tle": [
      "1 58409C 23180H   25278.76159722  .00012563  00000+0  47867-3 0  2784",
      "2 58409  43.0008  61.6539 0001722 279.5274 176.7019 15.25897320    15"
    ]
  },
  "58410": {
    "noradId": "58410",
    "tle": [
      "1 58410C 23180J   25278.76020833  .00010749  00000+0  38956-3 0  2789",
      "2 58410  43.0014  61.7006 0001699 274.0921 148.5764 15.27547813    11"
    ]
  },
  "58411": {
    "noradId": "58411",
    "tle": [
      "1 58411C 23180K   25278.76020833 -.00007661  00000+0 -56525-3 0  2783",
      "2 58411  43.0022 176.7589 0001297 269.0034  26.6565 15.02543850    12"
    ]
  },
  "58412": {
    "noradId": "58412",
    "tle": [
      "1 58412C 23180L   25278.75881944  .00012547  00000+0  45474-3 0  2789",
      "2 58412  43.0037  62.1895 0001570 277.4023 292.4720 15.27544741    15"
    ]
  },
  "58413": {
    "noradId": "58413",
    "tle": [
      "1 58413C 23180M   25278.75673611 -.00012129  00000+0 -89471-3 0  2783",
      "2 58413  43.0021 165.4575 0001300 278.2619 103.2606 15.02558146    11"
    ]
  },
  "58414": {
    "noradId": "58414",
    "tle": [
      "1 58414C 23180N   25278.75881944 -.00078582  00000+0 -57958-2 0  2783",
      "2 58414  43.0024 177.9111 0001343 271.5009 279.0887 15.02629774    14"
    ]
  },
  "58415": {
    "noradId": "58415",
    "tle": [
      "1 58415C 23180P   25278.75743056 -.00006080  00000+0 -44864-3 0  2782",
      "2 58415  43.0023 177.9483 0001322 267.6285 257.4457 15.02542513    13"
    ]
  },
  "58416": {
    "noradId": "58416",
    "tle": [
      "1 58416C 23180Q   25278.74493056  .00017051  00000+0  12582-2 0  2783",
      "2 58416  43.0022 178.0728 0001381 257.3351 182.0231 15.02517144    17"
    ]
  },
  "58417": {
    "noradId": "58417",
    "tle": [
      "1 58417C 23180R   25278.75951389  .00001863  00000+0  13765-3 0  2782",
      "2 58417  43.0021 177.6495 0001206 276.5688  26.0741 15.02484605    13"
    ]
  },
  "58418": {
    "noradId": "58418",
    "tle": [
      "1 58418C 23180S   25278.75881944 -.00005484  00000+0 -40469-3 0  2788",
      "2 58418  43.0020 177.8390 0001297 271.2245 315.4529 15.02539694    18"
    ]
  },
  "58419": {
    "noradId": "58419",
    "tle": [
      "1 58419C 23180T   25278.76020833 -.00028856  00000+0 -10445-2 0  2780",
      "2 58419  43.0024  98.7113 0001746 264.3315  48.4470 15.27627502    18"
    ]
  },
  "58420": {
    "noradId": "58420",
    "tle": [
      "1 58420C 23180U   25278.76645833  .00014997  00000+0  11066-2 0  2784",
      "2 58420  43.0021 177.7113 0001366 262.8369  41.2824 15.02520799    12"
    ]
  },
  "58421": {
    "noradId": "58421",
    "tle": [
      "1 58421C 23180V   25278.76090278  .00018434  00000+0  13614-2 0  2783",
      "2 58421  43.0027 177.4797 0001501 265.8370 116.5144 15.02484395    12"
    ]
  },
  "58422": {
    "noradId": "58422",
    "tle": [
      "1 58422C 23180W   25278.76298611  .00009454  00000+0  34252-3 0  2789",
      "2 58422  43.0002  65.2417 0001531 271.2932  91.5502 15.27561284    17"
    ]
  },
  "58423": {
    "noradId": "58423",
    "tle": [
      "1 58423C 23180X   25278.75743056  .00017668  00000+0  13041-2 0  2785",
      "2 58423  43.0020 177.8387 0001415 258.6104 302.6012 15.02505081    13"
    ]
  },
  "58424": {
    "noradId": "58424",
    "tle": [
      "1 58424C 23180Y   25278.76090278 -.00011148  00000+0 -82252-3 0  2788",
      "2 58424  43.0020 176.6906 0001230 269.3512  48.1293 15.02550416    10"
    ]
  }
}